{
    "title": "JY'S",
    "address": "17 r. de la Poissonnerie",
    "postCode": "68000"
}{
    "title": "La Tour des Vents",
    "address": "Le Moulin de Malfourat",
    "postCode": "24240"
}{
    "title": "Les Pêcheurs",
    "address": "10 boulevard du Maréchal-Juin",
    "postCode": "06600"
}{
    "title": "Christophe Bacquié",
    "address": "Hotel du Castellet Route des Hauts du Camp",
    "postCode": "83330"
}{
    "title": "Le Jardin des Remparts",
    "address": "10 rue Hôtel-Dieu",
    "postCode": "21200"
}{
    "title": "Le Saint-Estève",
    "address": "2250 route cézanne D17",
    "postCode": "13100"
}{
    "title": "Fanny Rey & Jonathan Wahid",
    "address": "12, boulevard Mirabeau",
    "postCode": "13210"
}{
    "title": "La Table de Franck Putelat",
    "address": "80 chemin des Anglais",
    "postCode": "11000"
}{
    "title": "L'Orangerie du Château",
    "address": "1 Avenue du Docteur Jean Laigret",
    "postCode": "41000"
}{
    "title": "Le 39V",
    "address": "39 Avenue George V",
    "postCode": "75008"
}{
    "title": "Frédéric Doucet",
    "address": "2 avenue de la Libération",
    "postCode": "71120"
}{
    "title": "Auberge de l'Île Barbe",
    "address": "1 Place Notre-Dame",
    "postCode": "69009"
}{
    "title": "Paul Bocuse",
    "address": "40 Rue de la Plage",
    "postCode": "69660"
}{
    "title": "Le Pré Catelan",
    "address": "Route de Suresnes",
    "postCode": "75016"
}{
    "title": "Aigue Marine",
    "address": "5 r. M. -Berthelot",
    "postCode": "22220"
}{
    "title": "Agapé",
    "address": "51 rue Jouffroy-d'Abbans",
    "postCode": "75017"
}{
    "title": "Les Tablettes de Jean-Louis Nomicos",
    "address": "16 avenue Bugeaud",
    "postCode": "75116"
}{
    "title": "Le Restaurant",
    "address": "13 rue des Beaux-Arts",
    "postCode": "75006"
}